{
  "links" : {
    "next" : "https://api.nasa.gov/neo/rest/v1/feed?start_date=1995-12-23&end_date=1995-12-23&detailed=true&api_key=t0TVs3DtDT2H8Oy2Zy8m2eVrNsAVKAexjcZXUckd",
    "prev" : "https://api.nasa.gov/neo/rest/v1/feed?start_date=1995-12-21&end_date=1995-12-21&detailed=true&api_key=t0TVs3DtDT2H8Oy2Zy8m2eVrNsAVKAexjcZXUckd",
    "self" : "https://api.nasa.gov/neo/rest/v1/feed?start_date=1995-12-22&end_date=1995-12-22&detailed=true&api_key=t0TVs3DtDT2H8Oy2Zy8m2eVrNsAVKAexjcZXUckd"
  },
  "element_count" : 1,
  "near_earth_objects" : {
    "1995-12-22" : [ {
      "links" : {
        "self" : "https://api.nasa.gov/neo/rest/v1/neo/3102683?api_key=t0TVs3DtDT2H8Oy2Zy8m2eVrNsAVKAexjcZXUckd"
      },
      "neo_reference_id" : "3102683",
      "name" : "(2001 XX4)",
      "nasa_jpl_url" : "http://ssd.jpl.nasa.gov/sbdb.cgi?sstr=3102683",
      "absolute_magnitude_h" : 22.1,
      "estimated_diameter" : {
        "kilometers" : {
          "estimated_diameter_min" : 0.1010543415,
          "estimated_diameter_max" : 0.2259643771
        },
        "meters" : {
          "estimated_diameter_min" : 101.054341542,
          "estimated_diameter_max" : 225.9643771094
        },
        "miles" : {
          "estimated_diameter_min" : 0.0627922373,
          "estimated_diameter_max" : 0.140407711
        },
        "feet" : {
          "estimated_diameter_min" : 331.5431259047,
          "estimated_diameter_max" : 741.3529669956
        }
      },
      "is_potentially_hazardous_asteroid" : true,
      "close_approach_data" : [ {
        "close_approach_date" : "1995-12-22",
        "epoch_date_close_approach" : 819619200000,
        "relative_velocity" : {
          "kilometers_per_second" : "12.111926908",
          "kilometers_per_hour" : "43602.9368688947",
          "miles_per_hour" : "27093.169300564"
        },
        "miss_distance" : {
          "astronomical" : "0.3739863988",
          "lunar" : "145.4807128906",
          "kilometers" : "55947568",
          "miles" : "34764208"
        },
        "orbiting_body" : "Earth"
      } ],
      "orbital_data" : {
        "orbit_id" : "12",
        "orbit_determination_date" : "2017-04-06 09:15:45",
        "orbit_uncertainty" : "1",
        "minimum_orbit_intersection" : ".0113586",
        "jupiter_tisserand_invariant" : "5.900",
        "epoch_osculation" : "2458000.5",
        "eccentricity" : ".5567337012305469",
        "semi_major_axis" : "1.006605851989085",
        "inclination" : ".8481960586753917",
        "ascending_node_longitude" : "127.0622179919935",
        "orbital_period" : "368.882118331136",
        "perihelion_distance" : ".4461944503308738",
        "perihelion_argument" : "186.8452503669185",
        "aphelion_distance" : "1.567017253647297",
        "perihelion_time" : "2458094.414798558509",
        "mean_anomaly" : "268.3465264350019",
        "mean_motion" : ".9759215264450343",
        "equinox" : "J2000"
      }
    } ]
  }
}